[{"OBJECT_NAME":"FLOCK 4G-6","OBJECT_ID":"2025-009BD","EPOCH":"2026-03-09T17:03:16.973568","MEAN_MOTION":15.27432125,"ECCENTRICITY":0.00023795,"INCLINATION":97.398,"RA_OF_ASC_NODE":150.7943,"ARG_OF_PERICENTER":348.2637,"MEAN_ANOMALY":11.8546,"EPHEMERIS_TYPE":0,"CLASSIFICATION_TYPE":"U","NORAD_CAT_ID":62660,"ELEMENT_SET_NO":999,"REV_AT_EPOCH":12130,"BSTAR":0.00045909501,"MEAN_MOTION_DOT":0.00012261,"MEAN_MOTION_DDOT":0},{"OBJECT_NAME":"STARLINK-35506","OBJECT_ID":"2025-253F","EPOCH":"2026-03-09T17:22:39.063072","MEAN_MOTION":15.27595327,"ECCENTRICITY":0.00026424,"INCLINATION":43.003,"RA_OF_ASC_NODE":211.9772,"ARG_OF_PERICENTER":271.1001,"MEAN_ANOMALY":88.9548,"EPHEMERIS_TYPE":0,"CLASSIFICATION_TYPE":"U","NORAD_CAT_ID":66324,"ELEMENT_SET_NO":999,"REV_AT_EPOCH":2025,"BSTAR":0.0011450516,"MEAN_MOTION_DOT":0.00031398,"MEAN_MOTION_DDOT":0}]
